{"fetched_at":"2026-07-15T17:47:25.845Z","source":"https://celestrak.org/NORAD/elements/gp.php?NAME=PLEIADES&FORMAT=JSON","constellation":"pleiades","records":[{"OBJECT_NAME":"PLEIADES 1A","OBJECT_ID":"2011-076F","EPOCH":"2026-07-15T04:31:09.655680","CLASSIFICATION_TYPE":"U","MEAN_MOTION":14.58546279,"ECCENTRICITY":0.0001669,"INCLINATION":98.1976,"RA_OF_ASC_NODE":270.9135,"ARG_OF_PERICENTER":80.2866,"MEAN_ANOMALY":4.4145,"EPHEMERIS_TYPE":0,"NORAD_CAT_ID":38012,"ELEMENT_SET_NO":999,"REV_AT_EPOCH":77607,"BSTAR":-7.6596e-7,"MEAN_MOTION_DOT":-4.9e-7,"MEAN_MOTION_DDOT":0},{"OBJECT_NAME":"PLEIADES 1B","OBJECT_ID":"2012-068A","EPOCH":"2026-07-15T04:56:52.128096","CLASSIFICATION_TYPE":"U","MEAN_MOTION":14.58534351,"ECCENTRICITY":0.0001565,"INCLINATION":98.1947,"RA_OF_ASC_NODE":270.8705,"ARG_OF_PERICENTER":79.7859,"MEAN_ANOMALY":280.3517,"EPHEMERIS_TYPE":0,"NORAD_CAT_ID":39019,"ELEMENT_SET_NO":999,"REV_AT_EPOCH":72493,"BSTAR":0.000028806,"MEAN_MOTION_DOT":8.8e-7,"MEAN_MOTION_DDOT":0}]}
